{
    "links": {
        "self": "http://www.neowsapp.com/rest/v1/neo/54017078?api_key=iIulBulltgU6a56xZRHN4H3l9WmuAYTsLGpBGhQ2"
    },
    "id": "54017078",
    "neo_reference_id": "54017078",
    "name": "(2020 KM)",
    "designation": "2020 KM",
    "nasa_jpl_url": "http://ssd.jpl.nasa.gov/sbdb.cgi?sstr=54017078",
    "absolute_magnitude_h": 23.761,
    "estimated_diameter": {
        "kilometers": {
            "estimated_diameter_min": 0.047027834,
            "estimated_diameter_max": 0.1051574337
        },
        "meters": {
            "estimated_diameter_min": 47.0278340067,
            "estimated_diameter_max": 105.1574336735
        },
        "miles": {
            "estimated_diameter_min": 0.0292217322,
            "estimated_diameter_max": 0.0653417797
        },
        "feet": {
            "estimated_diameter_min": 154.2907989224,
            "estimated_diameter_max": 345.0047146933
        }
    },
    "is_potentially_hazardous_asteroid": false,
    "close_approach_data": [
        {
            "close_approach_date": "2020-05-27",
            "close_approach_date_full": "2020-May-27 17:18",
            "epoch_date_close_approach": 1590599880000,
            "relative_velocity": {
                "kilometers_per_second": "20.7492193131",
                "kilometers_per_hour": "74697.1895272622",
                "miles_per_hour": "46413.9286815369"
            },
            "miss_distance": {
                "astronomical": "0.0931697505",
                "lunar": "36.2430329445",
                "kilometers": "13937996.223231435",
                "miles": "8660669.252546403"
            },
            "orbiting_body": "Earth"
        }
    ],
    "orbital_data": {
        "orbit_id": "3",
        "orbit_determination_date": "2020-05-23 06:21:24",
        "first_observation_date": "2020-05-16",
        "last_observation_date": "2020-05-23",
        "data_arc_in_days": 7,
        "observations_used": 19,
        "orbit_uncertainty": "9",
        "minimum_orbit_intersection": ".0924517",
        "jupiter_tisserand_invariant": "3.981",
        "epoch_osculation": "2458986.5",
        "eccentricity": ".360995743366694",
        "semi_major_axis": "1.653819898690413",
        "inclination": "37.45130207437275",
        "ascending_node_longitude": "65.21289810831853",
        "orbital_period": "776.8385097013243",
        "perihelion_distance": "1.056797954968037",
        "perihelion_argument": "214.7041157212057",
        "aphelion_distance": "2.25084184241279",
        "perihelion_time": "2459028.617006689087",
        "mean_anomaly": "340.4822724173383",
        "mean_motion": ".4634167790399724",
        "equinox": "J2000",
        "orbit_class": {
            "orbit_class_type": "AMO",
            "orbit_class_description": "Near-Earth asteroid orbits similar to that of 1221 Amor",
            "orbit_class_range": "1.017 AU < q (perihelion) < 1.3 AU"
        }
    },
    "is_sentry_object": false
}